{
    "type": "FeatureCollection",
    "features": [
        {
            "geometry": {
                "type": "Polygon",
                "_comment": "Source for coordinate data https://gist.githubusercontent.com/brunosan/9800909/raw/fe586ae06700bc2ab31eb423a8c7d65738fc6955/wrs2_descending.geojson",
                "coordinates": [
                    [
                        [
                            161.03278884721826,
                            -11.005069336176083
                        ],
                        [
                            159.359,
                            -10.762
                        ],
                        [
                            159.37545873460542,
                            -10.68686661791074
                        ],
                        [
                            159.692,
                            -9.24187
                        ],
                        [
                            159.69235293295952,
                            -9.24192124620447
                        ],
                        [
                            161.359,
                            -9.48392
                        ],
                        [
                            161.34288135367083,
                            -9.559132768168716
                        ],
                        [
                            161.033,
                            -11.0051
                        ],
                        [
                            161.03278884721826,
                            -11.005069336176083
                        ]
                    ]
                ]
            },
            "type": "Feature",
            "properties": {
                "region_code": "087_067"
            }
        },
        {
            "type": "Feature",
            "properties": {
                "region_code": "090_065"
            },
            "geometry": {
                "type": "Polygon",
                "coordinates": [
                    [
                        [
                            155.3722598978693,
                            -7.796597757210939
                        ],
                        [
                            155.6687075451182,
                            -6.426252739311063
                        ],
                        [
                            155.685,
                            -6.35094
                        ],
                        [
                            157.3399712109836,
                            -6.591365817677818
                        ],
                        [
                            157.34,
                            -6.59137
                        ],
                        [
                            157.3306235605501,
                            -6.635404827257373
                        ],
                        [
                            157.32397960037807,
                            -6.666607037866489
                        ],
                        [
                            157.016,
                            -8.11298
                        ],
                        [
                            157.01592565614132,
                            -8.112969196852056
                        ],
                        [
                            155.356,
                            -7.87176
                        ],
                        [
                            155.3722598978693,
                            -7.796597757210939
                        ]
                    ]
                ]
            }
        },
        {
            "type": "Feature",
            "properties": {
                "region_code": "089_066"
            },
            "geometry": {
                "type": "Polygon",
                "coordinates": [
                    [
                        [
                            158.25288135367083,
                            -9.559132768168718
                        ],
                        [
                            156.586,
                            -9.31704
                        ],
                        [
                            156.60235293295955,
                            -9.241921246204475
                        ],
                        [
                            156.917,
                            -7.79656
                        ],
                        [
                            156.91725989786931,
                            -7.796597757210942
                        ],
                        [
                            158.577,
                            -8.03772
                        ],
                        [
                            158.56097363105073,
                            -8.112976168242204
                        ],
                        [
                            158.253,
                            -9.55915
                        ],
                        [
                            158.25288135367083,
                            -9.559132768168718
                        ]
                    ]
                ]
            }
        },
        {
            "type": "Feature",
            "properties": {
                "region_code": "089_065"
            },
            "geometry": {
                "type": "Polygon",
                "coordinates": [
                    [
                        [
                            156.91725989786931,
                            -7.796597757210942
                        ],
                        [
                            157.21370754511818,
                            -6.426252739311064
                        ],
                        [
                            157.23,
                            -6.35094
                        ],
                        [
                            158.8849712109836,
                            -6.591365817677818
                        ],
                        [
                            158.885,
                            -6.59137
                        ],
                        [
                            158.87562356055008,
                            -6.635404827257373
                        ],
                        [
                            158.86897960037805,
                            -6.666607037866489
                        ],
                        [
                            158.561,
                            -8.11298
                        ],
                        [
                            158.56097363105073,
                            -8.112976168242204
                        ],
                        [
                            156.901,
                            -7.87176
                        ],
                        [
                            156.91725989786931,
                            -7.796597757210942
                        ]
                    ]
                ]
            }
        }
    ]
}
